{"type": "FeatureCollection", "features": [ {"type": "Feature", "properties": {"norad_id": 36011, "name": "IRIDIUM 33 DEB", "group": "iridium-33-debris", "lat": 23.29034470302554, "lon": 36.32648317341095, "alt_km": 766.1279997721385, "timestamp": "2025-12-14T07:33:19.863918+00:00", "meta": {"OBJECT_NAME": "IRIDIUM 33 DEB", "OBJECT_ID": "1997-051US", "EPOCH": "2025-12-11T21:42:29.079072", "MEAN_MOTION": 14.41326157, "ECCENTRICITY": 0.0017563, "INCLINATION": 86.3411, "RA_OF_ASC_NODE": 35.7829, "ARG_OF_PERICENTER": 218.6873, "MEAN_ANOMALY": 266.0791, "EPHEMERIS_TYPE": 0, "CLASSIFICATION_TYPE": "U", "NORAD_CAT_ID": 36011, "ELEMENT_SET_NO": 999, "REV_AT_EPOCH": 64528, "BSTAR": 0.00076231, "MEAN_MOTION_DOT": 2.489e-05, "MEAN_MOTION_DDOT": 0}, "tle": {"line1": "1 36011U 97051US  25345.90450323  .00002489  00000+0  76231-3 0  9992", "line2": "2 36011  86.3411  35.7829 0017563 218.6873 266.0791 14.41326157645287"}}, "geometry": {"type": "Point", "coordinates": [36.32648317341095, 23.29034470302554]}}, {"type": "Feature", "properties": {"norad_id": 36012, "name": "IRIDIUM 33 DEB", "group": "iridium-33-debris", "lat": -0.01274336049281301, "lon": 126.90016126958353, "alt_km": 797.3967127250353, "timestamp": "2025-12-14T07:33:19.863928+00:00", "meta": {"OBJECT_NAME": "IRIDIUM 33 DEB", "OBJECT_ID": "1997-051UT", "EPOCH": "2025-12-13T03:36:39.839040", "MEAN_MOTION": 14.19040776, "ECCENTRICITY": 0.02117527, "INCLINATION": 86.4419, "RA_OF_ASC_NODE": 307.3686, "ARG_OF_PERICENTER": 261.8907, "MEAN_ANOMALY": 95.8211, "EPHEMERIS_TYPE": 0, "CLASSIFICATION_TYPE": "U", "NORAD_CAT_ID": 36012, "ELEMENT_SET_NO": 999, "REV_AT_EPOCH": 65490, "BSTAR": 0.0088870781, "MEAN_MOTION_DOT": 0.0002327, "MEAN_MOTION_DDOT": 0}, "tle": {"line1": "1 36012U 97051UT  25347.15046110  .00023270  00000+0  88871-2 0  9990", "line2": "2 36012  86.4419 307.3686 0211752 261.8907  95.8211 14.19040776654909"}}, "geometry": {"type": "Point", "coordinates": [126.90016126958353, -0.01274336049281301]}}, {"type": "Feature", "properties": {"norad_id": 36028, "name": "IRIDIUM 33 DEB", "group": "iridium-33-debris", "lat": -23.573047330140724, "lon": -55.65095325349687, "alt_km": 581.9259767878348, "timestamp": "2025-12-14T07:33:19.863939+00:00", "meta": {"OBJECT_NAME": "IRIDIUM 33 DEB", "OBJECT_ID": "1997-051VK", "EPOCH": "2025-12-13T04:21:30.824928", "MEAN_MOTION": 14.95340527, "ECCENTRICITY": 0.00215137, "INCLINATION": 86.3216, "RA_OF_ASC_NODE": 306.4905, "ARG_OF_PERICENTER": 52.2095, "MEAN_ANOMALY": 308.1078, "EPHEMERIS_TYPE": 0, "CLASSIFICATION_TYPE": "U", "NORAD_CAT_ID": 36028, "ELEMENT_SET_NO": 999, "REV_AT_EPOCH": 87131, "BSTAR": 0.0034254157, "MEAN_MOTION_DOT": 0.00038122, "MEAN_MOTION_DDOT": 0}, "tle": {"line1": "1 36028U 97051VK  25347.18160677  .00038122  00000+0  34254-2 0  9993", "line2": "2 36028  86.3216 306.4905 0021513  52.2095 308.1078 14.95340527871316"}}, "geometry": {"type": "Point", "coordinates": [-55.65095325349687, -23.573047330140724]}}, {"type": "Feature", "properties": {"norad_id": 36080, "name": "IRIDIUM 33 DEB", "group": "iridium-33-debris", "lat": -80.18466840117911, "lon": -14.536802995150754, "alt_km": 752.0241780191072, "timestamp": "2025-12-14T07:33:19.863953+00:00", "meta": {"OBJECT_NAME": "IRIDIUM 33 DEB", "OBJECT_ID": "1997-051VM", "EPOCH": "2025-12-12T07:47:12.921504", "MEAN_MOTION": 14.46603626, "ECCENTRICITY": 0.0018143, "INCLINATION": 86.3202, "RA_OF_ASC_NODE": 8.1679, "ARG_OF_PERICENTER": 158.128, "MEAN_ANOMALY": 202.0701, "EPHEMERIS_TYPE": 0, "CLASSIFICATION_TYPE": "U", "NORAD_CAT_ID": 36080, "ELEMENT_SET_NO": 999, "REV_AT_EPOCH": 47408, "BSTAR": 0.00097514146, "MEAN_MOTION_DOT": 3.542e-05, "MEAN_MOTION_DDOT": 0}, "tle": {"line1": "1 36080U 97051VM  25346.32445511  .00003542  00000+0  97514-3 0  9996", "line2": "2 36080  86.3202   8.1679 0018143 158.1280 202.0701 14.46603626474086"}}, "geometry": {"type": "Point", "coordinates": [-14.536802995150754, -80.18466840117911]}}, {"type": "Feature", "properties": {"norad_id": 36083, "name": "IRIDIUM 33 DEB", "group": "iridium-33-debris", "lat": -7.9564359232967705, "lon": 32.96488187558027, "alt_km": 764.003976335368, "timestamp": "2025-12-14T07:33:19.863972+00:00", "meta": {"OBJECT_NAME": "IRIDIUM 33 DEB", "OBJECT_ID": "1997-051VQ", "EPOCH": "2025-12-06T21:32:26.892672", "MEAN_MOTION": 14.43175138, "ECCENTRICITY": 0.00247889, "INCLINATION": 86.3442, "RA_OF_ASC_NODE": 36.6683, "ARG_OF_PERICENTER": 243.3344, "MEAN_ANOMALY": 116.5319, "EPHEMERIS_TYPE": 0, "CLASSIFICATION_TYPE": "U", "NORAD_CAT_ID": 36083, "ELEMENT_SET_NO": 999, "REV_AT_EPOCH": 85365, "BSTAR": 0.00098432537, "MEAN_MOTION_DOT": 3.337e-05, "MEAN_MOTION_DDOT": 0}, "tle": {"line1": "1 36083U 97051VQ  25340.89753348  .00003337  00000+0  98433-3 0  9998", "line2": "2 36083  86.3442  36.6683 0024788 243.3344 116.5319 14.43175138853653"}}, "geometry": {"type": "Point", "coordinates": [32.96488187558027, -7.9564359232967705]}}, {"type": "Feature", "properties": {"norad_id": 36390, "name": "IRIDIUM 33 DEB", "group": "iridium-33-debris", "lat": -17.68964621339093, "lon": -62.51419916054843, "alt_km": 675.7614676195017, "timestamp": "2025-12-14T07:33:19.863993+00:00", "meta": {"OBJECT_NAME": "IRIDIUM 33 DEB", "OBJECT_ID": "1997-051VU", "EPOCH": "2025-12-10T04:13:18.491808", "MEAN_MOTION": 14.73548967, "ECCENTRICITY": 0.00303441, "INCLINATION": 86.2912, "RA_OF_ASC_NODE": 300.5678, "ARG_OF_PERICENTER": 170.4809, "MEAN_ANOMALY": 189.6991, "EPHEMERIS_TYPE": 0, "CLASSIFICATION_TYPE": "U", "NORAD_CAT_ID": 36390, "ELEMENT_SET_NO": 999, "REV_AT_EPOCH": 66224, "BSTAR": 0.0016206136, "MEAN_MOTION_DOT": 0.00010646, "MEAN_MOTION_DDOT": 0}, "tle": {"line1": "1 36390U 97051VU  25344.17590847  .00010646  00000+0  16206-2 0  9995", "line2": "2 36390  86.2912 300.5678 0030344 170.4809 189.6991 14.73548967662240"}}, "geometry": {"type": "Point", "coordinates": [-62.51419916054843, -17.68964621339093]}}, {"type": "Feature", "properties": {"norad_id": 36483, "name": "IRIDIUM 33 DEB", "group": "iridium-33-debris", "lat": 9.597957195485076, "lon": -128.7983751669096, "alt_km": 735.8360836526572, "timestamp": "2025-12-14T07:33:19.864010+00:00", "meta": {"OBJECT_NAME": "IRIDIUM 33 DEB", "OBJECT_ID": "1997-051VZ", "EPOCH": "2025-12-13T10:50:21.003936", "MEAN_MOTION": 14.45815478, "ECCENTRICITY": 0.00112504, "INCLINATION": 86.3797, "RA_OF_ASC_NODE": 52.1844, "ARG_OF_PERICENTER": 123.854, "MEAN_ANOMALY": 236.3734, "EPHEMERIS_TYPE": 0, "CLASSIFICATION_TYPE": "U", "NORAD_CAT_ID": 36483, "ELEMENT_SET_NO": 999, "REV_AT_EPOCH": 65156, "BSTAR": 0.00081590403, "MEAN_MOTION_DOT": 2.915e-05, "MEAN_MOTION_DDOT": 0}, "tle": {"line1": "1 36483U 97051VZ  25347.45163199  .00002915  00000+0  81590-3 0  9997", "line2": "2 36483  86.3797  52.1844 0011250 123.8540 236.3734 14.45815478651560"}}, "geometry": {"type": "Point", "coordinates": [-128.7983751669096, 9.597957195485076]}}, {"type": "Feature", "properties": {"norad_id": 36490, "name": "IRIDIUM 33 DEB", "group": "iridium-33-debris", "lat": -59.13020747434545, "lon": -164.1437739597752, "alt_km": 652.0866943426863, "timestamp": "2025-12-14T07:33:19.864027+00:00", "meta": {"OBJECT_NAME": "IRIDIUM 33 DEB", "OBJECT_ID": "1997-051WG", "EPOCH": "2025-12-13T01:11:31.805088", "MEAN_MOTION": 14.76204649, "ECCENTRICITY": 0.00055088, "INCLINATION": 86.3658, "RA_OF_ASC_NODE": 10.3233, "ARG_OF_PERICENTER": 82.9348, "MEAN_ANOMALY": 277.2498, "EPHEMERIS_TYPE": 0, "CLASSIFICATION_TYPE": "U", "NORAD_CAT_ID": 36490, "ELEMENT_SET_NO": 999, "REV_AT_EPOCH": 86489, "BSTAR": 0.0021967802, "MEAN_MOTION_DOT": 0.00015238, "MEAN_MOTION_DDOT": 0}, "tle": {"line1": "1 36490U 97051WG  25347.04967367  .00015238  00000+0  21968-2 0  9993", "line2": "2 36490  86.3658  10.3233 0005508  82.9348 277.2498 14.76204649864891"}}, "geometry": {"type": "Point", "coordinates": [-164.1437739597752, -59.13020747434545]}}, {"type": "Feature", "properties": {"norad_id": 36493, "name": "IRIDIUM 33 DEB", "group": "iridium-33-debris", "lat": 79.40544611707662, "lon": 171.0664768070695, "alt_km": 670.1753459833926, "timestamp": "2025-12-14T07:33:19.864043+00:00", "meta": {"OBJECT_NAME": "IRIDIUM 33 DEB", "OBJECT_ID": "1997-051WK", "EPOCH": "2025-12-13T08:09:20.242368", "MEAN_MOTION": 14.65247958, "ECCENTRICITY": 0.00101315, "INCLINATION": 86.3571, "RA_OF_ASC_NODE": 11.4132, "ARG_OF_PERICENTER": 3.2575, "MEAN_ANOMALY": 356.8702, "EPHEMERIS_TYPE": 0, "CLASSIFICATION_TYPE": "U", "NORAD_CAT_ID": 36493, "ELEMENT_SET_NO": 999, "REV_AT_EPOCH": 74527, "BSTAR": 0.0021348411, "MEAN_MOTION_DOT": 0.00011538, "MEAN_MOTION_DDOT": 0}, "tle": {"line1": "1 36493U 97051WK  25347.33981762  .00011538  00000+0  21348-2 0  9994", "line2": "2 36493  86.3571  11.4132 0010131   3.2575 356.8702 14.65247958745274"}}, "geometry": {"type": "Point", "coordinates": [171.0664768070695, 79.40544611707662]}}, {"type": "Feature", "properties": {"norad_id": 37548, "name": "IRIDIUM 33 DEB", "group": "iridium-33-debris", "lat": -28.226273155245377, "lon": -135.35532631033323, "alt_km": 710.6823297274705, "timestamp": "2025-12-14T07:33:19.864059+00:00", "meta": {"OBJECT_NAME": "IRIDIUM 33 DEB", "OBJECT_ID": "1997-051XH", "EPOCH": "2025-12-13T10:44:34.243584", "MEAN_MOTION": 14.51312722, "ECCENTRICITY": 0.00257089, "INCLINATION": 86.3511, "RA_OF_ASC_NODE": 43.059, "ARG_OF_PERICENTER": 186.1845, "MEAN_ANOMALY": 173.9047, "EPHEMERIS_TYPE": 0, "CLASSIFICATION_TYPE": "U", "NORAD_CAT_ID": 37548, "ELEMENT_SET_NO": 999, "REV_AT_EPOCH": 65542, "BSTAR": 0.0016301085, "MEAN_MOTION_DOT": 6.537e-05, "MEAN_MOTION_DDOT": 0}, "tle": {"line1": "1 37548U 97051XH  25347.44761856  .00006537  00000+0  16301-2 0  9994", "line2": "2 37548  86.3511  43.0590 0025708 186.1845 173.9047 14.51312722655420"}}, "geometry": {"type": "Point", "coordinates": [-135.35532631033323, -28.226273155245377]}}]}